NORAD_CAT_ID,OBJECT_NAME,OBJECT_TYPE,EPOCH,MEAN_MOTION,ECCENTRICITY,INCLINATION,RA_OF_ASC_NODE,ARG_OF_PERICENTER,MEAN_ANOMALY,BSTAR,MEAN_MOTION_DOT,MEAN_MOTION_DDOT,TLE_LINE0,TLE_LINE1,TLE_LINE2,SEMIMAJOR_AXIS,PERIOD,APOGEE,PERIGEE,DECAYED
50842.0,STARLINK-3302,PAYLOAD,2022-03-22 22:00:01,15.09757502,0.0001652,53.2172,198.4222,49.7247,220.3631,-0.043616,-0.00666242,0.0,0 STARLINK-3302,1 50842U 22001AR  22081.91668981 -.00666242  00000-0 -43616-1 0  9994,2 50842  53.2172 198.4222 0001652  49.7247 220.3631 15.09757502  3647,6915.0769999999975,95.38,538.085,535.8,0.0
50842.0,STARLINK-3302,PAYLOAD,2022-03-23 14:00:01,15.08836332,0.0002004,53.2174,195.4274,38.8303,255.4624,3.1729e-05,2.17e-06,0.0,0 STARLINK-3302,1 50842U 22001AR  22082.58334491  .00000217  00000-0  31729-4 0  9991,2 50842  53.2174 195.4274 0002004  38.8303 255.4624 15.08836332 13085,6917.892,95.438,541.143,538.37,0.0
50842.0,STARLINK-3302,PAYLOAD,2022-03-23 22:00:00,15.08822628,0.0001942,53.2149,193.93400000000003,45.7457,260.1657,-0.00074456,-0.00012113,0.0,0 STARLINK-3302,1 50842U 22001AR  22082.91667824 -.00012113  00000-0 -74456-3 0  9990,2 50842  53.2149 193.9340 0001942  45.7457 260.1657 15.08822628  3633,6917.933000000001,95.439,541.1419999999998,538.455,0.0
50842.0,STARLINK-3302,PAYLOAD,2022-03-24 14:00:01,15.08856594,0.0002136,53.2137,190.9457,45.1175,284.0045,-0.00030186,-5.092e-05,0.0,0 STARLINK-3302,1 50842U 22001AR  22083.58334491 -.00005092  00000-0 -30186-3 0  9995,2 50842  53.2137 190.9457 0002136  45.1175 284.0045 15.08856594  3616,6917.83,95.437,541.172,538.217,0.0
50842.0,STARLINK-3302,PAYLOAD,2022-03-24 22:00:00,15.08882545,0.0002074,53.2132,189.4486,44.0083,296.731,-0.0016567999999999,-0.00026591,0.0,0 STARLINK-3302,1 50842U 22001AR  22083.91667824 -.00026591  00000-0 -16568-2 0  9995,2 50842  53.2132 189.4486 0002074  44.0083 296.7310 15.08882545  3635,6917.75,95.435,541.05,538.181,0.0
50842.0,STARLINK-3302,PAYLOAD,2022-03-25 00:00:02,15.08877768,0.0002006,53.2134,189.0739,46.0386,27.6739,-0.0011354,-0.00018332,0.0,0 STARLINK-3302,1 50842U 22001AR  22084.00002315 -.00018332  00000-0 -11354-2 0  9996,2 50842  53.2134 189.0739 0002006  46.0386  27.6739 15.08877768 13297,6917.765,95.435,541.018,538.242,0.0
50842.0,STARLINK-3302,PAYLOAD,2022-03-25 06:00:00,15.08831815,0.0002105,53.2168,187.9449,45.662,306.7044,0.000539,8.299e-05,0.0,0 STARLINK-3302,1 50842U 22001AR  22084.25001157  .00008299  00000-0  53900-3 0  9999,2 50842  53.2168 187.9449 0002105  45.6620 306.7044 15.08831815 13333,6917.905,95.438,541.227,538.314,0.0
50842.0,STARLINK-3302,PAYLOAD,2022-03-25 14:00:01,15.08828629,0.0001963,53.2133,186.4564,40.8974,323.0359,-3.9138e-05,-9.11e-06,0.0,0 STARLINK-3302,1 50842U 22001AR  22084.58334491 -.00000911  00000-0 -39138-4 0  9998,2 50842  53.2133 186.4564 0001963  40.8974 323.0359 15.08828629  3617,6917.915,95.438,541.138,538.422,0.0
50842.0,STARLINK-3302,PAYLOAD,2022-03-25 22:00:01,15.08851625,0.0001909,53.2129,184.9592,40.3245,335.2492,-0.0017495999999999,-0.00028035,0.0,0 STARLINK-3302,1 50842U 22001AR  22084.91668981 -.00028035  00000-0 -17496-2 0  9997,2 50842  53.2129 184.9592 0001909  40.3245 335.2492 15.08851625  3639,6917.845,95.437,541.03,538.389,0.0
50842.0,STARLINK-3302,PAYLOAD,2022-03-26 06:00:00,15.08836878,0.0001781999999999,53.2131,183.4618,45.8563,341.2578,0.0022861,0.0003628,0.0,0 STARLINK-3302,1 50842U 22001AR  22085.25001157  .00036280  00000-0  22861-2 0  9992,2 50842  53.2131 183.4618 0001782  45.8563 341.2578 15.08836878 13486,6917.89,95.438,540.988,538.5219999999998,0.0
50842.0,STARLINK-3302,PAYLOAD,2022-03-26 14:00:01,15.088598199999998,0.0001955,53.213,181.9672,40.6246,358.0934,-0.0015394,-0.00024718,0.0,0 STARLINK-3302,1 50842U 22001AR  22085.58334491 -.00024718  00000-0 -15394-2 0  9996,2 50842  53.2130 181.9672 0001955  40.6246 358.0934 15.08859820  3608,6917.82,95.436,541.0369999999998,538.332,0.0
50842.0,STARLINK-3302,PAYLOAD,2022-03-26 22:00:00,15.08853766,0.0001848,53.2127,180.4698,38.8725,11.4535,-0.0022591,-0.00036076,0.0,0 STARLINK-3302,1 50842U 22001AR  22085.91667824 -.00036076  00000-0 -22591-2 0  9999,2 50842  53.2127 180.4698 0001848  38.8725  11.4535 15.08853766 13586,6917.8380000000025,95.437,540.982,538.425,0.0
50842.0,STARLINK-3302,PAYLOAD,2022-03-27 14:00:01,15.08853606,0.0001953,53.2131,177.4778,38.152,35.3792,-3.3226e-05,-8.17e-06,0.0,0 STARLINK-3302,1 50842U 22001AR  22086.58334491 -.00000817  00000-0 -33226-4 0  9997,2 50842  53.2131 177.4778 0001953  38.1520  35.3792 15.08853606 13683,6917.839,95.437,541.055,538.3530000000002,0.0
50842.0,STARLINK-3302,PAYLOAD,2022-03-27 22:00:01,15.08863252,0.0001844,53.213,175.9802,36.7357,48.4706,-0.0026441,-0.0004215,0.0,0 STARLINK-3302,1 50842U 22001AR  22086.91668981 -.00042150  00000-0 -26441-2 0  9993,2 50842  53.2130 175.9802 0001844  36.7357  48.4706 15.08863252  3625,6917.809,95.436,540.95,538.399,0.0
50842.0,STARLINK-3302,PAYLOAD,2022-03-28 14:00:01,15.08831266,0.0002051,53.2134,172.9883,37.855,70.5867,0.0015539,0.00024523,0.0,0 STARLINK-3302,1 50842U 22001AR  22087.58335648  .00024523  00000-0  15539-2 0  9996,2 50842  53.2134 172.9883 0002051  37.8550  70.5867 15.08831266  3627,6917.906999999997,95.438,541.191,538.3530000000002,0.0
50842.0,STARLINK-3302,PAYLOAD,2022-03-28 22:00:00,15.08864019,0.000195,53.2135,171.4908,37.4312,82.5426,-0.003175,-0.00050499,0.0,0 STARLINK-3302,1 50842U 22001AR  22087.91667824 -.00050499  00000-0 -31750-2 0  9993,2 50842  53.2135 171.4908 0001950  37.4312  82.5426 15.08864019 13884,6917.807,95.436,541.021,538.323,0.0
50842.0,STARLINK-3302,PAYLOAD,2022-03-29 14:00:01,15.08813597,0.0002157,53.2139,168.4991,38.2752,104.8801,0.0011194,0.00017559,0.0,0 STARLINK-3302,1 50842U 22001AR  22088.58334491  .00017559  00000-0  11194-2 0  9996,2 50842  53.2139 168.4991 0002157  38.2752 104.8801 15.08813597 13984,6917.9609999999975,95.439,541.318,538.3340000000002,0.0
50842.0,STARLINK-3302,PAYLOAD,2022-03-29 22:00:00,15.08829161,0.0002001,53.2141,167.0014,37.584,117.1435,-0.001793,-0.00028703,0.0,0 STARLINK-3302,1 50842U 22001AR  22088.91667824 -.00028703  00000-0 -17930-2 0  9991,2 50842  53.2141 167.0014 0002001  37.5840 117.1435 15.08829161  3585,6917.9140000000025,95.438,541.163,538.394,0.0
50842.0,STARLINK-3302,PAYLOAD,2022-03-30 12:00:00,15.08830019,0.0002153,53.2142,164.3838,37.6668,47.3103,0.00010853,1.439e-05,0.0,0 STARLINK-3302,1 50842U 22001AR  22089.50001157  .00001439  00000-0  10853-3 0  9991,2 50842  53.2142 164.3838 0002153  37.6668  47.3103 15.08830019 14129,6917.911,95.438,541.265,538.286,0.0
50842.0,STARLINK-3302,PAYLOAD,2022-03-30 14:00:01,15.08814629,0.0002179,53.2143,164.0099,36.4178,141.5228,0.0026766,0.00042539,0.0,0 STARLINK-3302,1 50842U 22001AR  22089.58335648  .00042539  00000-0  26766-2 0  9999,2 50842  53.2143 164.0099 0002179  36.4178 141.5228 15.08814629  3589,6917.958000000001,95.439,541.33,538.316,0.0
50842.0,STARLINK-3302,PAYLOAD,2022-03-30 22:00:00,15.08862711,0.0002011,53.2143,162.5122,37.0132,152.4453,-0.0031929,-0.00050778,0.0,0 STARLINK-3302,1 50842U 22001AR  22089.91667824 -.00050778  00000-0 -31929-2 0  9993,2 50842  53.2143 162.5122 0002011  37.0132 152.4453 15.08862711  3633,6917.811,95.436,541.067,538.285,0.0
50842.0,STARLINK-3302,PAYLOAD,2022-03-31 14:00:01,15.0883331,0.0002149,53.2143,159.5207,33.7593,178.8953,0.00072129,0.00011208,0.0,0 STARLINK-3302,1 50842U 22001AR  22090.58334491  .00011208  00000-0  72129-3 0  9990,2 50842  53.2143 159.5207 0002149  33.7593 178.8953 15.08833310 14282,6917.901,95.438,541.252,538.279,0.0
50842.0,STARLINK-3302,PAYLOAD,2022-03-31 22:00:00,15.08848826,0.000193,53.2141,158.0226,33.5127,190.7543,-3.534e-05,-8.51e-06,0.0,0 STARLINK-3302,1 50842U 22001AR  22090.91667824 -.00000851  00000-0 -35340-4 0  9995,2 50842  53.2141 158.0226 0001930  33.5127 190.7543 15.08848826  3580,6917.853,95.437,541.054,538.383,0.0
50842.0,STARLINK-3302,PAYLOAD,2022-04-01 08:00:01,15.08880258,0.0001955,53.214,156.1526,35.0181,293.7534,-0.00081318,-0.00013221,0.0,0 STARLINK-3302,1 50842U 22001AR  22091.33334491 -.00013221  00000-0 -81318-3 0  9993,2 50842  53.2140 156.1526 0001955  35.0181 293.7534 15.08880258 14407,6917.757,95.435,540.975,538.27,0.0
50842.0,STARLINK-3302,PAYLOAD,2022-04-01 14:00:01,15.0886001,0.0002108,53.2138,155.0313,32.3865,215.1064,-0.00077751,-0.00012648,0.0,0 STARLINK-3302,1 50842U 22001AR  22091.58334491 -.00012648  00000-0 -77751-3 0  9998,2 50842  53.2138 155.0313 0002108  32.3865 215.1064 15.08860010  3617,6917.819,95.436,541.143,538.226,0.0
50842.0,STARLINK-3302,PAYLOAD,2022-04-01 22:00:00,15.08850867,0.0001937,53.2135,153.5331,34.6315,224.4885,-0.0038645,-0.00061288,0.0,0 STARLINK-3302,1 50842U 22001AR  22091.91667824 -.00061288  00000-0 -38645-2 0  9996,2 50842  53.2135 153.5331 0001937  34.6315 224.4885 15.08850867 14492,6917.847,95.437,541.052,538.372,0.0
50842.0,STARLINK-3302,PAYLOAD,2022-04-02 14:00:01,15.08800973,0.0002137,53.213,150.5418,34.0456,248.2912,0.0026368,0.00041882,0.0,0 STARLINK-3302,1 50842U 22001AR  22092.58335648  .00041882  00000-0  26368-2 0  9991,2 50842  53.2130 150.5418 0002137  34.0456 248.2912 15.08800973 14592,6918.0,95.44,541.3430000000002,538.386,0.0
50842.0,STARLINK-3302,PAYLOAD,2022-04-02 22:00:01,15.08814489,0.0002013,53.2127,149.0436,38.1794,255.7366,3.4715e-05,2.64e-06,0.0,0 STARLINK-3302,1 50842U 22001AR  22092.91668981  .00000264  00000-0  34715-4 0  9993,2 50842  53.2127 149.0436 0002013  38.1794 255.7366 15.08814489  3607,6917.958000000001,95.439,541.216,538.431,0.0
50842.0,STARLINK-3302,PAYLOAD,2022-04-03 06:00:00,15.08832234,0.0001885,53.2126,147.5475,35.633,269.7847,-0.00035197,-5.884e-05,0.0,0 STARLINK-3302,1 50842U 22001AR  22093.25001157 -.00005884  00000-0 -35197-3 0  9996,2 50842  53.2126 147.5475 0001885  35.6330 269.7847 15.08832234 14694,6917.904,95.438,541.073,538.465,0.0
